GLOBALSTAR M024 [-]     
1 25883U 99043A   23275.47604249  .00000003  00000+0  24158-2 0  9990
2 25883  52.0049 347.9118 0001752 145.2560 227.8753 11.10152406 45597
GLOBALSTAR M027 [-]     
1 25884U 99043B   23275.68280557 -.00000139  00000+0 -28684-2 0  9996
2 25884  52.0232  47.7652 0021738  65.6693 294.6367 11.04365077 72358
GLOBALSTAR M053 [-]     
1 25886U 99043D   23275.50141881 -.00000042  00000+0  78370-3 0  9995
2 25886  51.9969 192.6282 0003824  94.5908  76.7561 11.27651059 49082
GLOBALSTAR M058 [-]     
1 25907U 99049A   23275.62961016 -.00000052  00000+0  43337-3 0  9994
2 25907  51.9964 334.1908 0002645 140.7181 219.3846 11.93166299467104
GLOBALSTAR M033 [-]     
1 25909U 99049C   23275.35636240 -.00000092  00000+0  12158-5 0  9997
2 25909  51.9916 304.1213 0011824  74.0701 286.1448 12.20262914459580
GLOBALSTAR M055 [-]     
1 25910U 99049D   23275.50924712 -.00000032  00000+0  53474-3 0  9998
2 25910  52.0044 344.7867 0006534 275.4453  84.5653 12.29387954 91574
